start=new Date('2022-02-03T00:00:00.000Z').valueOf();
sats=[{"SEMIMAJOR_AXIS":"6713.721","INCLINATION":"53.2172","OBJECT_TYPE":"PAYLOAD","FILE":"3290513","DECAY_DATE":null,"TLE_LINE1":"1 51125U 22005X   22033.91667824 -.00812054  00000-0 -51054-2 0  9995","MEAN_ELEMENT_THEORY":"SGP4","GP_ID":"195195693","RA_OF_ASC_NODE":"200.9054","REV_AT_EPOCH":"275","EPHEMERIS_TYPE":"0","NORAD_CAT_ID":"51125","CLASSIFICATION_TYPE":"U","ELEMENT_SET_NO":"999","APOAPSIS":"336.331","REF_FRAME":"TEME","PERIOD":"91.244","EPOCH":"2022-02-02T22:00:00.999936","TIME_SYSTEM":"UTC","OBJECT_ID":"2022-005X","OBJECT_NAME":"STARLINK-3387","BSTAR":"-0.00510540000000","MEAN_MOTION_DOT":"-0.00812054","MEAN_ANOMALY":"72.1316","SITE":"AFETR","PERIAPSIS":"334.841","ARG_OF_PERICENTER":"83.8145","LAUNCH_DATE":"2022-01-19","CENTER_NAME":"EARTH","MEAN_MOTION":"15.78184661","ECCENTRICITY":"0.00011100","MEAN_MOTION_DDOT":"0.0000000000000","COUNTRY_CODE":"US","TLE_LINE2":"2 51125  53.2172 200.9054 0001110  83.8145  72.1316 15.78184661  2759","RCS_SIZE":"LARGE"},{"RCS_SIZE":"LARGE","TLE_LINE2":"2 51126  53.2172 200.9076 0001104  76.2069  78.6741 15.78165019  2803","MEAN_MOTION":"15.78165019","ECCENTRICITY":"0.00011040","MEAN_MOTION_DDOT":"0.0000000000000","COUNTRY_CODE":"US","CENTER_NAME":"EARTH","ARG_OF_PERICENTER":"76.2069","LAUNCH_DATE":"2022-01-19","SITE":"AFETR","PERIAPSIS":"334.901","EPOCH":"2022-02-02T22:00:00.999936","TIME_SYSTEM":"UTC","OBJECT_ID":"2022-005Y","OBJECT_NAME":"STARLINK-3386","MEAN_MOTION_DOT":"-0.00811380","MEAN_ANOMALY":"78.6741","BSTAR":"-0.00510530000000","ELEMENT_SET_NO":"999","APOAPSIS":"336.383","REF_FRAME":"TEME","PERIOD":"91.245","CLASSIFICATION_TYPE":"U","NORAD_CAT_ID":"51126","EPHEMERIS_TYPE":"0","RA_OF_ASC_NODE":"200.9076","REV_AT_EPOCH":"280","MEAN_ELEMENT_THEORY":"SGP4","GP_ID":"195195540","FILE":"3290513","DECAY_DATE":null,"TLE_LINE1":"1 51126U 22005Y   22033.91667824 -.00811380  00000-0 -51053-2 0  9996","OBJECT_TYPE":"PAYLOAD","SEMIMAJOR_AXIS":"6713.777","INCLINATION":"53.2172"},{"FILE":"3290513","TLE_LINE1":"1 51127U 22005Z   22033.91667824 -.00811970  00000-0 -51074-2 0  9995","DECAY_DATE":null,"SEMIMAJOR_AXIS":"6713.753","INCLINATION":"53.2172","OBJECT_TYPE":"PAYLOAD","NORAD_CAT_ID":"51127","EPHEMERIS_TYPE":"0","MEAN_ELEMENT_THEORY":"SGP4","GP_ID":"195195463","RA_OF_ASC_NODE":"200.9066","REV_AT_EPOCH":"276","TIME_SYSTEM":"UTC","EPOCH":"2022-02-02T22:00:00.999936","MEAN_ANOMALY":"79.2281","MEAN_MOTION_DOT":"-0.00811970","BSTAR":"-0.00510740000000","OBJECT_NAME":"STARLINK-3370","OBJECT_ID":"2022-005Z","SITE":"AFETR","PERIAPSIS":"334.878","CLASSIFICATION_TYPE":"U","APOAPSIS":"336.357","ELEMENT_SET_NO":"999","PERIOD":"91.245","REF_FRAME":"TEME","ECCENTRICITY":"0.00011020","MEAN_MOTION":"15.78173573","COUNTRY_CODE":"US","MEAN_MOTION_DDOT":"0.0000000000000","RCS_SIZE":"LARGE","TLE_LINE2":"2 51127  53.2172 200.9066 0001102  76.2000  79.2281 15.78173573  2761","LAUNCH_DATE":"2022-01-19","ARG_OF_PERICENTER":"76.2000","CENTER_NAME":"EARTH"},{"COUNTRY_CODE":"US","MEAN_MOTION_DDOT":"0.0000000000000","ECCENTRICITY":"0.00011150","MEAN_MOTION":"15.78246582","TLE_LINE2":"2 51128  53.2172 200.8989 0001115  75.8296  83.2574 15.78246582  2807","RCS_SIZE":"MEDIUM","LAUNCH_DATE":"2022-01-19","ARG_OF_PERICENTER":"75.8296","CENTER_NAME":"EARTH","MEAN_MOTION_DOT":"-0.00811459","MEAN_ANOMALY":"83.2574","BSTAR":"-0.00508700000000","OBJECT_NAME":"STARLINK-3400","OBJECT_ID":"2022-005AA","EPOCH":"2022-02-02T22:00:00.999936","TIME_SYSTEM":"UTC","PERIAPSIS":"334.662","SITE":"AFETR","CLASSIFICATION_TYPE":"U","PERIOD":"91.240","REF_FRAME":"TEME","APOAPSIS":"336.159","ELEMENT_SET_NO":"999","NORAD_CAT_ID":"51128","EPHEMERIS_TYPE":"0","GP_ID":"195195924","MEAN_ELEMENT_THEORY":"SGP4","REV_AT_EPOCH":"280","RA_OF_ASC_NODE":"200.8989","TLE_LINE1":"1 51128U 22005AA  22033.91667824 -.00811459  00000-0 -50870-2 0  9991","DECAY_DATE":null,"FILE":"3290513","SEMIMAJOR_AXIS":"6713.545","INCLINATION":"53.2172","OBJECT_TYPE":"PAYLOAD"},{"CENTER_NAME":"EARTH","ARG_OF_PERICENTER":"223.4792","LAUNCH_DATE":"2022-01-19","RCS_SIZE":"MEDIUM","TLE_LINE2":"2 51129  53.2183 211.6096 0021034 223.4792 356.4534 15.93026100  2454","MEAN_MOTION":"15.93026100","ECCENTRICITY":"0.00210340","MEAN_MOTION_DDOT":"0.0000972460000","COUNTRY_CODE":"US","ELEMENT_SET_NO":"999","APOAPSIS":"307.856","REF_FRAME":"TEME","PERIOD":"90.394","CLASSIFICATION_TYPE":"U","SITE":"AFETR","PERIAPSIS":"279.788","TIME_SYSTEM":"UTC","EPOCH":"2022-01-31T16:00:01.999584","OBJECT_NAME":"STARLINK-3396","OBJECT_ID":"2022-005AB","MEAN_MOTION_DOT":"-0.00521081","BSTAR":"-0.00141290000000","MEAN_ANOMALY":"356.4534","RA_OF_ASC_NODE":"211.6096","REV_AT_EPOCH":"245","MEAN_ELEMENT_THEORY":"SGP4","GP_ID":"195056789","NORAD_CAT_ID":"51129","EPHEMERIS_TYPE":"0","OBJECT_TYPE":"PAYLOAD","SEMIMAJOR_AXIS":"6671.957","INCLINATION":"53.2183","FILE":"3288814","DECAY_DATE":null,"TLE_LINE1":"1 51129U 22005AB  22031.66668981 -.00521081  97246-4 -14129-2 0  9995"},{"FILE":"3290513","DECAY_DATE":null,"TLE_LINE1":"1 51130U 22005AC  22033.91667824 -.00811305  00000-0 -50982-2 0  9998","OBJECT_TYPE":"PAYLOAD","SEMIMAJOR_AXIS":"6713.697","INCLINATION":"53.2172","NORAD_CAT_ID":"51130","EPHEMERIS_TYPE":"0","RA_OF_ASC_NODE":"200.9044","REV_AT_EPOCH":"280","MEAN_ELEMENT_THEORY":"SGP4","GP_ID":"195195848","SITE":"AFETR","PERIAPSIS":"334.799","EPOCH":"2022-02-02T22:00:00.999936","TIME_SYSTEM":"UTC","OBJECT_ID":"2022-005AC","OBJECT_NAME":"STARLINK-3395","MEAN_MOTION_DOT":"-0.00811305","BSTAR":"-0.00509820000000","MEAN_ANOMALY":"84.4801","ELEMENT_SET_NO":"999","APOAPSIS":"336.324","REF_FRAME":"TEME","PERIOD":"91.244","CLASSIFICATION_TYPE":"U","RCS_SIZE":"LARGE","TLE_LINE2":"2 51130  53.2172 200.9044 0001136  72.0030  84.4801 15.78193271  2803","MEAN_MOTION":"15.78193271","ECCENTRICITY":"0.00011360","MEAN_MOTION_DDOT":"0.0000000000000","COUNTRY_CODE":"US","CENTER_NAME":"EARTH","ARG_OF_PERICENTER":"72.0030","LAUNCH_DATE":"2022-01-19"},{"EPHEMERIS_TYPE":"0","NORAD_CAT_ID":"51131","RA_OF_ASC_NODE":"200.9011","REV_AT_EPOCH":"280","MEAN_ELEMENT_THEORY":"SGP4","GP_ID":"195195771","FILE":"3290513","TLE_LINE1":"1 51131U 22005AD  22033.91667824 -.00811412  00000-0 -50908-2 0  9996","DECAY_DATE":null,"OBJECT_TYPE":"PAYLOAD","SEMIMAJOR_AXIS":"6713.596","INCLINATION":"53.2172","TLE_LINE2":"2 51131  53.2172 200.9011 0001110  76.6068  81.4035 15.78228744  2801","RCS_SIZE":"MEDIUM","ECCENTRICITY":"0.00011100","MEAN_MOTION":"15.78228744","COUNTRY_CODE":"US","MEAN_MOTION_DDOT":"0.0000000000000","CENTER_NAME":"EARTH","LAUNCH_DATE":"2022-01-19","ARG_OF_PERICENTER":"76.6068","SITE":"AFETR","PERIAPSIS":"334.716","TIME_SYSTEM":"UTC","EPOCH":"2022-02-02T22:00:00.999936","BSTAR":"-0.00509080000000","MEAN_MOTION_DOT":"-0.00811412","MEAN_ANOMALY":"81.4035","OBJECT_NAME":"STARLINK-3388","OBJECT_ID":"2022-005AD","APOAPSIS":"336.206","ELEMENT_SET_NO":"999","PERIOD":"91.242","REF_FRAME":"TEME","CLASSIFICATION_TYPE":"U"},{"EPHEMERIS_TYPE":"0","NORAD_CAT_ID":"51132","REV_AT_EPOCH":"280","RA_OF_ASC_NODE":"200.9022","GP_ID":"195195618","MEAN_ELEMENT_THEORY":"SGP4","TLE_LINE1":"1 51132U 22005AE  22033.91667824 -.00811388  00000-0 -50938-2 0  9992","DECAY_DATE":null,"FILE":"3290513","OBJECT_TYPE":"PAYLOAD","SEMIMAJOR_AXIS":"6713.635","INCLINATION":"53.2172","RCS_SIZE":"MEDIUM","TLE_LINE2":"2 51132  53.2172 200.9022 0001130  71.6890  85.8337 15.78214857  2807","COUNTRY_CODE":"US","MEAN_MOTION_DDOT":"0.0000000000000","ECCENTRICITY":"0.00011300","MEAN_MOTION":"15.78214857","CENTER_NAME":"EARTH","LAUNCH_DATE":"2022-01-19","ARG_OF_PERICENTER":"71.6890","PERIAPSIS":"334.742","SITE":"AFETR","MEAN_ANOMALY":"85.8337","MEAN_MOTION_DOT":"-0.00811388","BSTAR":"-0.00509380000000","OBJECT_ID":"2022-005AE","OBJECT_NAME":"STARLINK-3393","TIME_SYSTEM":"UTC","EPOCH":"2022-02-02T22:00:00.999936","PERIOD":"91.242","REF_FRAME":"TEME","APOAPSIS":"336.259","ELEMENT_SET_NO":"999","CLASSIFICATION_TYPE":"U"},{"INCLINATION":"53.2172","SEMIMAJOR_AXIS":"6713.511","OBJECT_TYPE":"PAYLOAD","DECAY_DATE":null,"TLE_LINE1":"1 51133U 22005AF  22033.91667824 -.00812278  00000-0 -50898-2 0  9997","FILE":"3290513","GP_ID":"195195694","MEAN_ELEMENT_THEORY":"SGP4","REV_AT_EPOCH":"285","RA_OF_ASC_NODE":"200.8978","EPHEMERIS_TYPE":"0","NORAD_CAT_ID":"51133","CLASSIFICATION_TYPE":"U","REF_FRAME":"TEME","PERIOD":"91.240","ELEMENT_SET_NO":"999","APOAPSIS":"336.142","OBJECT_NAME":"STARLINK-3356","OBJECT_ID":"2022-005AF","MEAN_MOTION_DOT":"-0.00812278","MEAN_ANOMALY":"87.9551","BSTAR":"-0.00508980000000","EPOCH":"2022-02-02T22:00:00.999936","TIME_SYSTEM":"UTC","PERIAPSIS":"334.611","SITE":"AFETR","ARG_OF_PERICENTER":"71.6432","LAUNCH_DATE":"2022-01-19","CENTER_NAME":"EARTH","MEAN_MOTION_DDOT":"0.0000000000000","COUNTRY_CODE":"US","MEAN_MOTION":"15.78258637","ECCENTRICITY":"0.00011400","TLE_LINE2":"2 51133  53.2172 200.8978 0001140  71.6432  87.9551 15.78258637  2850","RCS_SIZE":"LARGE"},{"FILE":"3290513","TLE_LINE1":"1 51134U 22005AG  22033.91667824 -.00742404  00000-0 -34811-2 0  9998","DECAY_DATE":null,"SEMIMAJOR_AXIS":"6696.461","INCLINATION":"53.2175","OBJECT_TYPE":"PAYLOAD","EPHEMERIS_TYPE":"0","NORAD_CAT_ID":"51134","MEAN_ELEMENT_THEORY":"SGP4","GP_ID":"195195541","RA_OF_ASC_NODE":"200.4315","REV_AT_EPOCH":"282","EPOCH":"2022-02-02T22:00:00.999936","TIME_SYSTEM":"UTC","BSTAR":"-0.00348110000000","MEAN_MOTION_DOT":"-0.00742404","MEAN_ANOMALY":"348.6657","OBJECT_ID":"2022-005AG","OBJECT_NAME":"STARLINK-3183","SITE":"AFETR","PERIAPSIS":"317.372","CLASSIFICATION_TYPE":"U","APOAPSIS":"319.280","ELEMENT_SET_NO":"999","PERIOD":"90.892","REF_FRAME":"TEME","ECCENTRICITY":"0.00014250","MEAN_MOTION":"15.84290268","COUNTRY_CODE":"US","MEAN_MOTION_DDOT":"0.0000000000000","RCS_SIZE":"LARGE","TLE_LINE2":"2 51134  53.2175 200.4315 0001425  35.5859 348.6657 15.84290268  2827","LAUNCH_DATE":"2022-01-19","ARG_OF_PERICENTER":"35.5859","CENTER_NAME":"EARTH"}];
